{"type": "FeatureCollection", "features": [ {"type": "Feature", "properties": {"norad_id": 29748, "name": "FENGYUN 1C DEB", "group": "fengyun-1c-debris", "lat": -35.39097301460712, "lon": 81.98217436334511, "alt_km": 2391.093098668719, "timestamp": "2025-12-01T03:58:50.084794+00:00", "meta": {"OBJECT_NAME": "FENGYUN 1C DEB", "OBJECT_ID": "1999-025AN", "EPOCH": "2025-11-30T18:42:42.024384", "MEAN_MOTION": 11.89140875, "ECCENTRICITY": 0.0815154, "INCLINATION": 99.8095, "RA_OF_ASC_NODE": 268.7549, "ARG_OF_PERICENTER": 29.765, "MEAN_ANOMALY": 334.7306, "EPHEMERIS_TYPE": 0, "CLASSIFICATION_TYPE": "U", "NORAD_CAT_ID": 29748, "ELEMENT_SET_NO": 999, "REV_AT_EPOCH": 78591, "BSTAR": 0.20624, "MEAN_MOTION_DOT": 0.00037005, "MEAN_MOTION_DDOT": 0, "GROUP": "fengyun-1c-debris"}, "tle": {"line1": "1 29748U 99025AN  25334.77965306  .00037005  00000+0  20624+0 0  9992", "line2": "2 29748  99.8095 268.7549 0815154  29.7650 334.7306 11.89140875785916"}}, "geometry": {"type": "Point", "coordinates": [81.98217436334511, -35.39097301460712]}}, {"type": "Feature", "properties": {"norad_id": 29750, "name": "FENGYUN 1C DEB", "group": "fengyun-1c-debris", "lat": -63.15422219112512, "lon": 166.8740776919153, "alt_km": 867.9158616920167, "timestamp": "2025-12-01T03:58:50.084806+00:00", "meta": {"OBJECT_NAME": "FENGYUN 1C DEB", "OBJECT_ID": "1999-025AQ", "EPOCH": "2025-11-30T15:27:45.747936", "MEAN_MOTION": 14.09626927, "ECCENTRICITY": 0.003545, "INCLINATION": 98.7562, "RA_OF_ASC_NODE": 4.0953, "ARG_OF_PERICENTER": 336.3907, "MEAN_ANOMALY": 143.1291, "EPHEMERIS_TYPE": 0, "CLASSIFICATION_TYPE": "U", "NORAD_CAT_ID": 29750, "ELEMENT_SET_NO": 999, "REV_AT_EPOCH": 96903, "BSTAR": 0.00021894, "MEAN_MOTION_DOT": 3.43e-06, "MEAN_MOTION_DDOT": 0, "GROUP": "fengyun-1c-debris"}, "tle": {"line1": "1 29750U 99025AQ  25334.64427949  .00000343  00000+0  21894-3 0  9996", "line2": "2 29750  98.7562   4.0953 0035450 336.3907 143.1291 14.09626927969035"}}, "geometry": {"type": "Point", "coordinates": [166.8740776919153, -63.15422219112512]}}, {"type": "Feature", "properties": {"norad_id": 29751, "name": "FENGYUN 1C DEB", "group": "fengyun-1c-debris", "lat": 20.13864746148109, "lon": -173.46830546118446, "alt_km": 750.5571148584395, "timestamp": "2025-12-01T03:58:50.084818+00:00", "meta": {"OBJECT_NAME": "FENGYUN 1C DEB", "OBJECT_ID": "1999-025AR", "EPOCH": "2025-11-30T00:23:20.372064", "MEAN_MOTION": 14.23613533, "ECCENTRICITY": 0.00893299, "INCLINATION": 98.5429, "RA_OF_ASC_NODE": 2.2553, "ARG_OF_PERICENTER": 176.0611, "MEAN_ANOMALY": 215.0713, "EPHEMERIS_TYPE": 0, "CLASSIFICATION_TYPE": "U", "NORAD_CAT_ID": 29751, "ELEMENT_SET_NO": 999, "REV_AT_EPOCH": 97892, "BSTAR": 0.00019440504, "MEAN_MOTION_DOT": 4.19e-06, "MEAN_MOTION_DDOT": 0, "GROUP": "fengyun-1c-debris"}, "tle": {"line1": "1 29751U 99025AR  25334.01620801  .00000419  00000+0  19441-3 0  9999", "line2": "2 29751  98.5429   2.2553 0089329 176.0611 215.0713 14.23613533978928"}}, "geometry": {"type": "Point", "coordinates": [-173.46830546118446, 20.13864746148109]}}, {"type": "Feature", "properties": {"norad_id": 29754, "name": "FENGYUN 1C DEB", "group": "fengyun-1c-debris", "lat": 57.96390811088854, "lon": -87.64836623563514, "alt_km": 845.356154809132, "timestamp": "2025-12-01T03:58:50.084830+00:00", "meta": {"OBJECT_NAME": "FENGYUN 1C DEB", "OBJECT_ID": "1999-025AU", "EPOCH": "2025-11-30T01:11:44.441088", "MEAN_MOTION": 14.19068771, "ECCENTRICITY": 0.00353826, "INCLINATION": 98.8843, "RA_OF_ASC_NODE": 76.7578, "ARG_OF_PERICENTER": 276.0351, "MEAN_ANOMALY": 266.7461, "EPHEMERIS_TYPE": 0, "CLASSIFICATION_TYPE": "U", "NORAD_CAT_ID": 29754, "ELEMENT_SET_NO": 999, "REV_AT_EPOCH": 97174, "BSTAR": 0.001081006, "MEAN_MOTION_DOT": 2.228e-05, "MEAN_MOTION_DDOT": 0, "GROUP": "fengyun-1c-debris"}, "tle": {"line1": "1 29754U 99025AU  25334.04981992  .00002228  00000+0  10810-2 0  9996", "line2": "2 29754  98.8843  76.7578 0035382 276.0351 266.7461 14.19068771971748"}}, "geometry": {"type": "Point", "coordinates": [-87.64836623563514, 57.96390811088854]}}, {"type": "Feature", "properties": {"norad_id": 29758, "name": "FENGYUN 1C DEB", "group": "fengyun-1c-debris", "lat": -74.23909622490474, "lon": -123.05960023110018, "alt_km": 762.7369898601792, "timestamp": "2025-12-01T03:58:50.084842+00:00", "meta": {"OBJECT_NAME": "FENGYUN 1C DEB", "OBJECT_ID": "1999-025AY", "EPOCH": "2025-11-30T20:42:26.282016", "MEAN_MOTION": 14.4068018, "ECCENTRICITY": 0.0020182, "INCLINATION": 98.8554, "RA_OF_ASC_NODE": 90.157, "ARG_OF_PERICENTER": 344.7695, "MEAN_ANOMALY": 141.4713, "EPHEMERIS_TYPE": 0, "CLASSIFICATION_TYPE": "U", "NORAD_CAT_ID": 29758, "ELEMENT_SET_NO": 999, "REV_AT_EPOCH": 97500, "BSTAR": 0.0025391, "MEAN_MOTION_DOT": 8.089e-05, "MEAN_MOTION_DDOT": 0, "GROUP": "fengyun-1c-debris"}, "tle": {"line1": "1 29758U 99025AY  25334.86280419  .00008089  00000+0  25391-2 0  9997", "line2": "2 29758  98.8554  90.1570 0020182 344.7695 141.4713 14.40680180975009"}}, "geometry": {"type": "Point", "coordinates": [-123.05960023110018, -74.23909622490474]}}, {"type": "Feature", "properties": {"norad_id": 29760, "name": "FENGYUN 1C DEB", "group": "fengyun-1c-debris", "lat": -73.53712517564632, "lon": 126.20229233267624, "alt_km": 810.8273615476828, "timestamp": "2025-12-01T03:58:50.084854+00:00", "meta": {"OBJECT_NAME": "FENGYUN 1C DEB", "OBJECT_ID": "1999-025BA", "EPOCH": "2025-11-30T13:07:45.871680", "MEAN_MOTION": 14.08276318, "ECCENTRICITY": 0.0130256, "INCLINATION": 98.7625, "RA_OF_ASC_NODE": 337.0631, "ARG_OF_PERICENTER": 208.0139, "MEAN_ANOMALY": 151.3978, "EPHEMERIS_TYPE": 0, "CLASSIFICATION_TYPE": "U", "NORAD_CAT_ID": 29760, "ELEMENT_SET_NO": 999, "REV_AT_EPOCH": 96921, "BSTAR": 0.00010173, "MEAN_MOTION_DOT": 1.45e-06, "MEAN_MOTION_DDOT": 0, "GROUP": "fengyun-1c-debris"}, "tle": {"line1": "1 29760U 99025BA  25334.54705870  .00000145  00000+0  10173-3 0  9996", "line2": "2 29760  98.7625 337.0631 0130256 208.0139 151.3978 14.08276318969217"}}, "geometry": {"type": "Point", "coordinates": [126.20229233267624, -73.53712517564632]}}, {"type": "Feature", "properties": {"norad_id": 29762, "name": "FENGYUN 1C DEB", "group": "fengyun-1c-debris", "lat": -13.935780341056454, "lon": -39.59910995107909, "alt_km": 685.4859881945758, "timestamp": "2025-12-01T03:58:50.084865+00:00", "meta": {"OBJECT_NAME": "FENGYUN 1C DEB", "OBJECT_ID": "1999-025BC", "EPOCH": "2025-11-30T10:11:16.171872", "MEAN_MOTION": 14.22535447, "ECCENTRICITY": 0.02047909, "INCLINATION": 98.5782, "RA_OF_ASC_NODE": 317.5322, "ARG_OF_PERICENTER": 11.4439, "MEAN_ANOMALY": 141.0205, "EPHEMERIS_TYPE": 0, "CLASSIFICATION_TYPE": "U", "NORAD_CAT_ID": 29762, "ELEMENT_SET_NO": 999, "REV_AT_EPOCH": 97773, "BSTAR": 0.00042155462, "MEAN_MOTION_DOT": 1.12e-05, "MEAN_MOTION_DDOT": 0, "GROUP": "fengyun-1c-debris"}, "tle": {"line1": "1 29762U 99025BC  25334.42449273  .00001120  00000+0  42155-3 0  9996", "line2": "2 29762  98.5782 317.5322 0204790  11.4439 141.0205 14.22535447977737"}}, "geometry": {"type": "Point", "coordinates": [-39.59910995107909, -13.935780341056454]}}, {"type": "Feature", "properties": {"norad_id": 29763, "name": "FENGYUN 1C DEB", "group": "fengyun-1c-debris", "lat": 75.38299531738494, "lon": 171.15808635765592, "alt_km": 892.230159900444, "timestamp": "2025-12-01T03:58:50.084876+00:00", "meta": {"OBJECT_NAME": "FENGYUN 1C DEB", "OBJECT_ID": "1999-025BD", "EPOCH": "2025-11-30T20:57:09.011808", "MEAN_MOTION": 14.07864994, "ECCENTRICITY": 0.0126876, "INCLINATION": 98.76, "RA_OF_ASC_NODE": 314.6298, "ARG_OF_PERICENTER": 214.0791, "MEAN_ANOMALY": 205.6382, "EPHEMERIS_TYPE": 0, "CLASSIFICATION_TYPE": "U", "NORAD_CAT_ID": 29763, "ELEMENT_SET_NO": 999, "REV_AT_EPOCH": 96883, "BSTAR": 0.00020627, "MEAN_MOTION_DOT": 3.33e-06, "MEAN_MOTION_DDOT": 0, "GROUP": "fengyun-1c-debris"}, "tle": {"line1": "1 29763U 99025BD  25334.87302097  .00000333  00000+0  20627-3 0  9993", "line2": "2 29763  98.7600 314.6298 0126876 214.0791 205.6382 14.07864994968838"}}, "geometry": {"type": "Point", "coordinates": [171.15808635765592, 75.38299531738494]}}, {"type": "Feature", "properties": {"norad_id": 29765, "name": "FENGYUN 1C DEB", "group": "fengyun-1c-debris", "lat": -44.06327674481643, "lon": 165.06006381812986, "alt_km": 900.2271159677748, "timestamp": "2025-12-01T03:58:50.084887+00:00", "meta": {"OBJECT_NAME": "FENGYUN 1C DEB", "OBJECT_ID": "1999-025BF", "EPOCH": "2025-11-30T08:09:27.357408", "MEAN_MOTION": 14.02145432, "ECCENTRICITY": 0.00594689, "INCLINATION": 98.8311, "RA_OF_ASC_NODE": 352.9135, "ARG_OF_PERICENTER": 126.9804, "MEAN_ANOMALY": 250.0879, "EPHEMERIS_TYPE": 0, "CLASSIFICATION_TYPE": "U", "NORAD_CAT_ID": 29765, "ELEMENT_SET_NO": 999, "REV_AT_EPOCH": 96577, "BSTAR": 0.00029656145, "MEAN_MOTION_DOT": 4.18e-06, "MEAN_MOTION_DDOT": 0, "GROUP": "fengyun-1c-debris"}, "tle": {"line1": "1 29765U 99025BF  25334.33989997  .00000418  00000+0  29656-3 0  9991", "line2": "2 29765  98.8311 352.9135 0059468 126.9804 250.0879 14.02145432965772"}}, "geometry": {"type": "Point", "coordinates": [165.06006381812986, -44.06327674481643]}}]}